ISS (ZARYA)             
1 25544U 98067A   26029.14423895  .00012119  00000+0  23330-3 0  9992
2 25544  51.6318 267.8418 0011079  40.9721 319.2097 15.48261724550206
CSS (TIANHE)            
1 48274U 21035A   26029.46753309  .00035517  00000+0  40750-3 0  9991
2 48274  41.4674  86.5141 0009214  30.7035 329.4341 15.61300658271485
ISS (NAUKA)             
1 49044U 21066A   26028.88605451  .00011021  00000+0  21300-3 0  9994
2 49044  51.6319 269.1180 0011179  40.2849 319.8966 15.48254051230441
FREGAT DEB              
1 49271U 11037PF  26029.30785760  .00056122  00000+0  99991-1 0  9993
2 49271  51.6493  58.4836 0914903 329.2306  25.7830 12.37217813207816
CSS (WENTIAN)           
1 53239U 22085A   26028.57199371  .00027953  00000+0  32262-3 0  9992
2 53239  41.4673  91.9689 0009404  23.4558 336.6709 15.61237451173847
CSS (MENGTIAN)          
1 54216U 22143A   26028.57199371  .00027953  00000+0  32262-3 0  9993
2 54216  41.4673  91.9689 0009404  23.4558 336.6709 15.61237451158644
PROGRESS-MS 31          
1 64751U 25146A   26028.88605451  .00011021  00000+0  21300-3 0  9999
2 64751  51.6319 269.1180 0011179  40.2849 319.8966 15.48254051  6758
TIANZHOU-9              
1 64786U 25149A   26028.57199371  .00027953  00000+0  32262-3 0  9995
2 64786  41.4673  91.9689 0009404  23.4558 336.6709 15.61237451255308
DRAGON CRS-33           
1 65304U 25186A   26028.88605451  .00011021  00000+0  21300-3 0  9998
2 65304  51.6319 269.1180 0011179  40.2849 319.8966 15.48254051   117
PROGRESS-MS 32          
1 65586U 25204A   26028.88605451  .00011021  00000+0  21300-3 0  9991
2 65586  51.6319 269.1180 0011179  40.2849 319.8966 15.48254051   276
CYGNUS NG-23            
1 65616U 25208A   26028.88605451  .00011021  00000+0  21300-3 0  9999
2 65616  51.6319 269.1180 0011179  40.2849 319.8966 15.48254051   225
DRAGONFLY               
1 65729U 98067XH  26028.83530788  .02150850  51119-2  17459-2 0  9997
2 65729  51.6063 249.8464 0007538 230.2713 129.7639 16.14710791 20635
